[{"OBJECT_NAME":"PERUSAT 1","OBJECT_ID":"2016-058A","EPOCH":"2026-03-09T23:16:32.302848","MEAN_MOTION":14.58548827,"ECCENTRICITY":0.00012113,"INCLINATION":98.2091,"RA_OF_ASC_NODE":143.8668,"ARG_OF_PERICENTER":91.7691,"MEAN_ANOMALY":268.3647,"EPHEMERIS_TYPE":0,"CLASSIFICATION_TYPE":"U","NORAD_CAT_ID":41770,"ELEMENT_SET_NO":999,"REV_AT_EPOCH":50463,"BSTAR":7.1568116e-5,"MEAN_MOTION_DOT":2.87e-6,"MEAN_MOTION_DDOT":0},{"OBJECT_NAME":"CBERS 1 DEB","OBJECT_ID":"1999-057NY","EPOCH":"2026-03-09T02:08:53.829888","MEAN_MOTION":14.5860901,"ECCENTRICITY":0.00056005,"INCLINATION":98.6394,"RA_OF_ASC_NODE":111.9269,"ARG_OF_PERICENTER":35.281,"MEAN_ANOMALY":19.0444,"EPHEMERIS_TYPE":0,"CLASSIFICATION_TYPE":"U","NORAD_CAT_ID":30789,"ELEMENT_SET_NO":999,"REV_AT_EPOCH":164,"BSTAR":0.00097961619,"MEAN_MOTION_DOT":4.513e-5,"MEAN_MOTION_DDOT":0}]
